start=new Date('2021-11-26T00:00:00.000Z').valueOf();
sats=[{"ARG_OF_PERICENTER":"71.5648","FILE":"3223911","BSTAR":"0.00000001073800","REF_FRAME":"TEME","OBJECT_NAME":"STARLINK-2702","ECCENTRICITY":"0.00009860","MEAN_MOTION_DDOT":"0.0000000000000","RCS_SIZE":"LARGE","ELEMENT_SET_NO":"999","RA_OF_ASC_NODE":"8.0720","TLE_LINE2":"2 48441  53.0572   8.0720 0000986  71.5648 288.5448 15.06390375 30715","TLE_LINE1":"1 48441U 21040P   21329.48787741 -.00000281  00000-0  10738-7 0  9999","MEAN_MOTION_DOT":"-0.00000281","REV_AT_EPOCH":"3071","DECAY_DATE":null,"APOAPSIS":"547.926","SEMIMAJOR_AXIS":"6925.378","SITE":"AFETR","PERIAPSIS":"546.560","EPHEMERIS_TYPE":"0","COUNTRY_CODE":"US","CLASSIFICATION_TYPE":"U","INCLINATION":"53.0572","GP_ID":"190466819","PERIOD":"95.593","NORAD_CAT_ID":"48441","TIME_SYSTEM":"UTC","LAUNCH_DATE":"2021-05-09","MEAN_ELEMENT_THEORY":"SGP4","EPOCH":"2021-11-25T11:42:32.608224","MEAN_ANOMALY":"288.5448","MEAN_MOTION":"15.06390375","CENTER_NAME":"EARTH","OBJECT_ID":"2021-040P","OBJECT_TYPE":"PAYLOAD"},{"TLE_LINE1":"1 48442U 21040Q   21329.41785259  .00010270  00000-0  70839-3 0  9997","RCS_SIZE":"LARGE","ELEMENT_SET_NO":"999","RA_OF_ASC_NODE":"8.3848","TLE_LINE2":"2 48442  53.0569   8.3848 0002395  85.9694 274.1569 15.06346432 30701","MEAN_MOTION_DDOT":"0.0000000000000","DECAY_DATE":null,"REV_AT_EPOCH":"3070","MEAN_MOTION_DOT":"0.00010270","BSTAR":"0.00070839000000","FILE":"3223911","ARG_OF_PERICENTER":"85.9694","ECCENTRICITY":"0.00023950","OBJECT_NAME":"STARLINK-2644","REF_FRAME":"TEME","LAUNCH_DATE":"2021-05-09","MEAN_ELEMENT_THEORY":"SGP4","EPOCH":"2021-11-25T10:01:42.463776","NORAD_CAT_ID":"48442","TIME_SYSTEM":"UTC","INCLINATION":"53.0569","GP_ID":"190466289","PERIOD":"95.596","CLASSIFICATION_TYPE":"U","OBJECT_TYPE":"PAYLOAD","OBJECT_ID":"2021-040Q","CENTER_NAME":"EARTH","MEAN_ANOMALY":"274.1569","MEAN_MOTION":"15.06346432","APOAPSIS":"549.036","SITE":"AFETR","SEMIMAJOR_AXIS":"6925.513","COUNTRY_CODE":"US","EPHEMERIS_TYPE":"0","PERIAPSIS":"545.719"},{"OBJECT_ID":"2021-040R","OBJECT_TYPE":"PAYLOAD","MEAN_ANOMALY":"298.2469","MEAN_MOTION":"15.06400253","CENTER_NAME":"EARTH","NORAD_CAT_ID":"48443","TIME_SYSTEM":"UTC","MEAN_ELEMENT_THEORY":"SGP4","LAUNCH_DATE":"2021-05-09","EPOCH":"2021-11-25T11:31:55.287264","CLASSIFICATION_TYPE":"U","INCLINATION":"53.0574","PERIOD":"95.592","GP_ID":"190466948","EPHEMERIS_TYPE":"0","COUNTRY_CODE":"US","PERIAPSIS":"546.180","APOAPSIS":"548.245","SITE":"AFETR","SEMIMAJOR_AXIS":"6925.348","DECAY_DATE":null,"MEAN_MOTION_DOT":"-0.00000973","REV_AT_EPOCH":"3071","TLE_LINE1":"1 48443U 21040R   21329.48050101 -.00000973  00000-0 -46422-4 0  9999","MEAN_MOTION_DDOT":"0.0000000000000","RCS_SIZE":"LARGE","RA_OF_ASC_NODE":"8.1023","ELEMENT_SET_NO":"999","TLE_LINE2":"2 48443  53.0574   8.1023 0001491  61.8671 298.2469 15.06400253 30714","ECCENTRICITY":"0.00014910","REF_FRAME":"TEME","OBJECT_NAME":"STARLINK-2663","FILE":"3223911","BSTAR":"-0.00004642200000","ARG_OF_PERICENTER":"61.8671"},{"TLE_LINE1":"1 48444U 21040S   21329.47681470 -.00000167  00000-0  76946-5 0  9997","MEAN_MOTION_DDOT":"0.0000000000000","RCS_SIZE":"LARGE","RA_OF_ASC_NODE":"8.1234","ELEMENT_SET_NO":"999","TLE_LINE2":"2 48444  53.0568   8.1234 0001480  59.6092 300.5044 15.06405971 30710","DECAY_DATE":null,"MEAN_MOTION_DOT":"-0.00000167","REV_AT_EPOCH":"3071","FILE":"3223911","BSTAR":"0.00000769460000","ARG_OF_PERICENTER":"59.6092","ECCENTRICITY":"0.00014800","REF_FRAME":"TEME","OBJECT_NAME":"STARLINK-2645","NORAD_CAT_ID":"48444","TIME_SYSTEM":"UTC","MEAN_ELEMENT_THEORY":"SGP4","LAUNCH_DATE":"2021-05-09","EPOCH":"2021-11-25T11:26:36.790080","CLASSIFICATION_TYPE":"U","INCLINATION":"53.0568","PERIOD":"95.592","GP_ID":"190466692","OBJECT_TYPE":"PAYLOAD","OBJECT_ID":"2021-040S","MEAN_ANOMALY":"300.5044","MEAN_MOTION":"15.06405971","CENTER_NAME":"EARTH","APOAPSIS":"548.220","SITE":"AFETR","SEMIMAJOR_AXIS":"6925.330","EPHEMERIS_TYPE":"0","COUNTRY_CODE":"US","PERIAPSIS":"546.170"},{"TLE_LINE1":"1 48445U 21040T   21329.53948271 -.00000160  00000-0  81691-5 0  9996","MEAN_MOTION_DDOT":"0.0000000000000","RCS_SIZE":"LARGE","RA_OF_ASC_NODE":"7.8444","ELEMENT_SET_NO":"999","TLE_LINE2":"2 48445  53.0568   7.8444 0001629  63.5030 296.6126 15.06399123 30729","DECAY_DATE":null,"REV_AT_EPOCH":"3072","MEAN_MOTION_DOT":"-0.00000160","FILE":"3223911","BSTAR":"0.00000816910000","ARG_OF_PERICENTER":"63.5030","ECCENTRICITY":"0.00016290","REF_FRAME":"TEME","OBJECT_NAME":"STARLINK-2634","NORAD_CAT_ID":"48445","TIME_SYSTEM":"UTC","MEAN_ELEMENT_THEORY":"SGP4","LAUNCH_DATE":"2021-05-09","EPOCH":"2021-11-25T12:56:51.306144","CLASSIFICATION_TYPE":"U","INCLINATION":"53.0568","GP_ID":"190466542","PERIOD":"95.592","OBJECT_ID":"2021-040T","OBJECT_TYPE":"PAYLOAD","MEAN_ANOMALY":"296.6126","MEAN_MOTION":"15.06399123","CENTER_NAME":"EARTH","APOAPSIS":"548.344","SITE":"AFETR","SEMIMAJOR_AXIS":"6925.351","EPHEMERIS_TYPE":"0","COUNTRY_CODE":"US","PERIAPSIS":"546.088"},{"REF_FRAME":"TEME","OBJECT_NAME":"STARLINK-2247","ECCENTRICITY":"0.00013750","ARG_OF_PERICENTER":"54.5630","FILE":"3223911","BSTAR":"0.00001099600000","MEAN_MOTION_DOT":"-0.00000118","REV_AT_EPOCH":"3070","DECAY_DATE":null,"MEAN_MOTION_DDOT":"0.0000000000000","TLE_LINE2":"2 48446  53.0566   8.4535 0001375  54.5630 305.5487 15.06392383 30709","RCS_SIZE":"LARGE","ELEMENT_SET_NO":"999","RA_OF_ASC_NODE":"8.4535","TLE_LINE1":"1 48446U 21040U   21329.40310004 -.00000118  00000-0  10996-4 0  9992","PERIAPSIS":"546.285","EPHEMERIS_TYPE":"0","COUNTRY_CODE":"US","SITE":"AFETR","SEMIMAJOR_AXIS":"6925.372","APOAPSIS":"548.189","MEAN_MOTION":"15.06392383","MEAN_ANOMALY":"305.5487","CENTER_NAME":"EARTH","OBJECT_TYPE":"PAYLOAD","OBJECT_ID":"2021-040U","CLASSIFICATION_TYPE":"U","GP_ID":"190466565","PERIOD":"95.593","INCLINATION":"53.0566","TIME_SYSTEM":"UTC","NORAD_CAT_ID":"48446","EPOCH":"2021-11-25T09:40:27.843456","MEAN_ELEMENT_THEORY":"SGP4","LAUNCH_DATE":"2021-05-09"},{"ARG_OF_PERICENTER":"62.3183","BSTAR":"0.00002447200000","FILE":"3223911","OBJECT_NAME":"STARLINK-2269","REF_FRAME":"TEME","ECCENTRICITY":"0.00015230","RA_OF_ASC_NODE":"7.8721","RCS_SIZE":"LARGE","ELEMENT_SET_NO":"999","TLE_LINE2":"2 48447  53.0568   7.8721 0001523  62.3183 297.7961 15.06391630 30722","MEAN_MOTION_DDOT":"0.0000000000000","TLE_LINE1":"1 48447U 21040V   21329.53210634  .00000083  00000-0  24472-4 0  9999","REV_AT_EPOCH":"3072","MEAN_MOTION_DOT":"0.00000083","DECAY_DATE":null,"APOAPSIS":"548.294","SEMIMAJOR_AXIS":"6925.374","SITE":"AFETR","PERIAPSIS":"546.184","COUNTRY_CODE":"US","EPHEMERIS_TYPE":"0","INCLINATION":"53.0568","GP_ID":"190467177","PERIOD":"95.593","CLASSIFICATION_TYPE":"U","LAUNCH_DATE":"2021-05-09","MEAN_ELEMENT_THEORY":"SGP4","EPOCH":"2021-11-25T12:46:13.987776","NORAD_CAT_ID":"48447","TIME_SYSTEM":"UTC","CENTER_NAME":"EARTH","MEAN_ANOMALY":"297.7961","MEAN_MOTION":"15.06391630","OBJECT_ID":"2021-040V","OBJECT_TYPE":"PAYLOAD"},{"DECAY_DATE":null,"REV_AT_EPOCH":"3071","MEAN_MOTION_DOT":"0.00030507","TLE_LINE1":"1 48448U 21040W   21329.49064196  .00030507  00000-0  20600-2 0  9996","MEAN_MOTION_DDOT":"0.0000000000000","TLE_LINE2":"2 48448  53.0569   8.0598 0001978  69.1723 290.9478 15.06365927 30715","RCS_SIZE":"LARGE","ELEMENT_SET_NO":"999","RA_OF_ASC_NODE":"8.0598","ECCENTRICITY":"0.00019780","REF_FRAME":"TEME","OBJECT_NAME":"STARLINK-2632","FILE":"3223911","BSTAR":"0.00206000000000","ARG_OF_PERICENTER":"69.1723","OBJECT_ID":"2021-040W","OBJECT_TYPE":"PAYLOAD","MEAN_MOTION":"15.06365927","MEAN_ANOMALY":"290.9478","CENTER_NAME":"EARTH","TIME_SYSTEM":"UTC","NORAD_CAT_ID":"48448","EPOCH":"2021-11-25T11:46:31.465344","LAUNCH_DATE":"2021-05-09","MEAN_ELEMENT_THEORY":"SGP4","CLASSIFICATION_TYPE":"U","PERIOD":"95.594","GP_ID":"190466416","INCLINATION":"53.0569","EPHEMERIS_TYPE":"0","COUNTRY_CODE":"US","PERIAPSIS":"545.948","SEMIMAJOR_AXIS":"6925.453","SITE":"AFETR","APOAPSIS":"548.688"},{"TLE_LINE1":"1 48449U 21040X   21329.52842024  .00000109  00000-0  26226-4 0  9992","MEAN_MOTION_DDOT":"0.0000000000000","RCS_SIZE":"LARGE","RA_OF_ASC_NODE":"7.8913","ELEMENT_SET_NO":"999","TLE_LINE2":"2 48449  53.0575   7.8913 0001272  63.7226 296.3894 15.06391585 30728","DECAY_DATE":null,"MEAN_MOTION_DOT":"0.00000109","REV_AT_EPOCH":"3072","FILE":"3223911","BSTAR":"0.00002622600000","ARG_OF_PERICENTER":"63.7226","ECCENTRICITY":"0.00012720","REF_FRAME":"TEME","OBJECT_NAME":"STARLINK-2655","NORAD_CAT_ID":"48449","TIME_SYSTEM":"UTC","MEAN_ELEMENT_THEORY":"SGP4","LAUNCH_DATE":"2021-05-09","EPOCH":"2021-11-25T12:40:55.508736","CLASSIFICATION_TYPE":"U","INCLINATION":"53.0575","GP_ID":"190466820","PERIOD":"95.593","OBJECT_TYPE":"PAYLOAD","OBJECT_ID":"2021-040X","MEAN_ANOMALY":"296.3894","MEAN_MOTION":"15.06391585","CENTER_NAME":"EARTH","APOAPSIS":"548.120","SITE":"AFETR","SEMIMAJOR_AXIS":"6925.374","EPHEMERIS_TYPE":"0","COUNTRY_CODE":"US","PERIAPSIS":"546.358"},{"PERIAPSIS":"546.253","EPHEMERIS_TYPE":"0","COUNTRY_CODE":"US","SEMIMAJOR_AXIS":"6925.346","SITE":"AFETR","APOAPSIS":"548.169","MEAN_MOTION":"15.06400879","MEAN_ANOMALY":"297.2558","CENTER_NAME":"EARTH","OBJECT_ID":"2021-040Y","OBJECT_TYPE":"PAYLOAD","CLASSIFICATION_TYPE":"U","GP_ID":"190466290","PERIOD":"95.592","INCLINATION":"53.0561","TIME_SYSTEM":"UTC","NORAD_CAT_ID":"48450","EPOCH":"2021-11-25T12:35:37.289760","MEAN_ELEMENT_THEORY":"SGP4","LAUNCH_DATE":"2021-05-09","REF_FRAME":"TEME","OBJECT_NAME":"STARLINK-2660","ECCENTRICITY":"0.00013830","ARG_OF_PERICENTER":"62.8572","FILE":"3223911","BSTAR":"0.00003981200000","REV_AT_EPOCH":"3072","MEAN_MOTION_DOT":"0.00000312","DECAY_DATE":null,"MEAN_MOTION_DDOT":"0.0000000000000","TLE_LINE2":"2 48450  53.0561   7.9045 0001383  62.8572 297.2558 15.06400879 30723","ELEMENT_SET_NO":"999","RCS_SIZE":"LARGE","RA_OF_ASC_NODE":"7.9045","TLE_LINE1":"1 48450U 21040Y   21329.52473715  .00000312  00000-0  39812-4 0  9992"}];
